{
  "type" : "FeatureCollection",
  "features" : [{"type":"Feature","id":1,"geometry":{"type":"Point","coordinates":[-71.124268829999949,42.256472889000065]},"properties":{"OBJECTID":1,"BLDG_ID":"Bos_1809107000_B0","BID":100639,"ADDRESS":"1249 Hyde Park Ave","POINT_X":-71.124268829999949,"POINT_Y":42.256472889000065,"NAME":"District E-18 Police Station","NEIGHBORHOOD":"Hyde Park","CITY":"Boston","ZIP":"02136","FT_SQFT":8585,"STORY_HT":2,"PARCEL_ID":"1809107000","District":"E18","shape_wkt":"POINT (-71.124268829999949 42.256472889000065)"}},{"type":"Feature","id":2,"geometry":{"type":"Point","coordinates":[-71.148367137999969,42.28677693700007]},"properties":{"OBJECTID":2,"BLDG_ID":"Bos_2005719000_B0","BID":112112,"ADDRESS":"1708 Centre St","POINT_X":-71.148367137999969,"POINT_Y":42.28677693700007,"NAME":"District E-5 Police Station","NEIGHBORHOOD":"West Roxbury","CITY":"Boston","ZIP":"02132","FT_SQFT":7708,"STORY_HT":2,"PARCEL_ID":"2005719000","District":"E5","shape_wkt":"POINT (-71.148367137999969 42.28677693700007)"}},{"type":"Feature","id":3,"geometry":{"type":"Point","coordinates":[-71.028134977999969,42.38149651100008]},"properties":{"OBJECTID":3,"BLDG_ID":"Bos_0103711003_B0","BID":222774,"ADDRESS":"300 E Eagle St","POINT_X":-71.028134977999969,"POINT_Y":42.38149651100008,"NAME":"District A-7 Police Station","NEIGHBORHOOD":"East Boston","CITY":"Boston","ZIP":"02128","FT_SQFT":null,"STORY_HT":3,"PARCEL_ID":"0103711003","District":"A7","shape_wkt":"POINT (-71.028134977999969 42.38149651100008)"}},{"type":"Feature","id":4,"geometry":{"type":"Point","coordinates":[-71.060306675999982,42.361816451000038]},"properties":{"OBJECTID":4,"BLDG_ID":"Bos_0302626000_B0","BID":136171,"ADDRESS":"40 Sudbury St","POINT_X":-71.060306675999982,"POINT_Y":42.361816451000038,"NAME":"District A-1 Police Station","NEIGHBORHOOD":"Boston","CITY":"Boston","ZIP":"02114","FT_SQFT":6882,"STORY_HT":5,"PARCEL_ID":"0302626000","District":"A1","shape_wkt":"POINT (-71.060306675999982 42.361816451000038)"}},{"type":"Feature","id":5,"geometry":{"type":"Point","coordinates":[-71.15057769799995,42.34938584300005]},"properties":{"OBJECTID":5,"BLDG_ID":"Bos_2202387000_B0","BID":145004,"ADDRESS":"301 Washington St","POINT_X":-71.15057769799995,"POINT_Y":42.34938584300005,"NAME":"District D-14 Police Station","NEIGHBORHOOD":"Brighton","CITY":"Boston","ZIP":"02135","FT_SQFT":8712,"STORY_HT":2,"PARCEL_ID":"2202387000","District":"D14","shape_wkt":"POINT (-71.15057769799995 42.34938584300005)"}},{"type":"Feature","id":6,"geometry":{"type":"Point","coordinates":[-71.056046539999954,42.376457980000055]},"properties":{"OBJECTID":6,"BLDG_ID":"Bos_0202644020_B0","BID":148316,"ADDRESS":"20 Vine St","POINT_X":-71.056046539999954,"POINT_Y":42.376457980000055,"NAME":"District A-15 Police Station","NEIGHBORHOOD":"Charlestown","CITY":"Boston","ZIP":"02129","FT_SQFT":null,"STORY_HT":null,"PARCEL_ID":"0202644020","District":"A15","shape_wkt":"POINT (-71.056046539999954 42.376457980000055)"}},{"type":"Feature","id":7,"geometry":{"type":"Point","coordinates":[-71.054935696999962,42.34115537100007]},"properties":{"OBJECTID":7,"BLDG_ID":"Bos_0600118000_B0","BID":154919,"ADDRESS":"101 W Broadway","POINT_X":-71.054935696999962,"POINT_Y":42.34115537100007,"NAME":"District C-6 Police Station","NEIGHBORHOOD":"South Boston","CITY":"Boston","ZIP":"02127","FT_SQFT":8528,"STORY_HT":2,"PARCEL_ID":"0600118000","District":"C6","shape_wkt":"POINT (-71.054935696999962 42.34115537100007)"}},{"type":"Feature","id":8,"geometry":{"type":"Point","coordinates":[-71.069239163999953,42.339431004000062]},"properties":{"OBJECTID":8,"BLDG_ID":"Bos_0801170010_B0","BID":162100,"ADDRESS":"650 Harrison Ave","POINT_X":-71.069239163999953,"POINT_Y":42.339431004000062,"NAME":"District D-4 Police Station","NEIGHBORHOOD":"Boston","CITY":"Boston","ZIP":"02118","FT_SQFT":12382,"STORY_HT":3,"PARCEL_ID":"0801170010","District":"D4","shape_wkt":"POINT (-71.069239163999953 42.339431004000062)"}},{"type":"Feature","id":9,"geometry":{"type":"Point","coordinates":[-71.090746919999958,42.334183663000033]},"properties":{"OBJECTID":9,"BLDG_ID":"Bos_0902771010_B0","BID":163892,"ADDRESS":"1 Schroeder Plz","POINT_X":-71.090746919999958,"POINT_Y":42.334183663000033,"NAME":"Boston Police Headquarters","NEIGHBORHOOD":"Roxbury","CITY":"Boston","ZIP":"02120","FT_SQFT":194000,"STORY_HT":4,"PARCEL_ID":"0902771010","District":null,"shape_wkt":"POINT (-71.090746919999958 42.334183663000033)"}},{"type":"Feature","id":10,"geometry":{"type":"Point","coordinates":[-71.085683750999976,42.328376723000076]},"properties":{"OBJECTID":10,"BLDG_ID":"Bos_1201261000_B0","BID":176508,"ADDRESS":"2400 Washington St","POINT_X":-71.085683750999976,"POINT_Y":42.328376723000076,"NAME":"District B-2 Police Station","NEIGHBORHOOD":"Roxbury","CITY":"Boston","ZIP":"02119","FT_SQFT":10809,"STORY_HT":3,"PARCEL_ID":"1201261000","District":"B2","shape_wkt":"POINT (-71.085683750999976 42.328376723000076)"}},{"type":"Feature","id":11,"geometry":{"type":"Point","coordinates":[-71.104638613999953,42.309713783000063]},"properties":{"OBJECTID":11,"BLDG_ID":"Bos_1102261000_B0","BID":180965,"ADDRESS":"3345 Washington St","POINT_X":-71.104638613999953,"POINT_Y":42.309713783000063,"NAME":"District E-13 Police Station","NEIGHBORHOOD":"Jamaica Plain","CITY":"Boston","ZIP":"02130","FT_SQFT":8312,"STORY_HT":2,"PARCEL_ID":"1102261000","District":"E13","shape_wkt":"POINT (-71.104638613999953 42.309713783000063)"}},{"type":"Feature","id":12,"geometry":{"type":"Point","coordinates":[-71.091701393999983,42.284720271000026]},"properties":{"OBJECTID":12,"BLDG_ID":"Bos_1404623000_B0","BID":186089,"ADDRESS":"1165 Blue Hill Ave","POINT_X":-71.091701393999983,"POINT_Y":42.284720271000026,"NAME":"District B-3 Police Station","NEIGHBORHOOD":"Mattapan","CITY":"Boston","ZIP":"02124","FT_SQFT":9740,"STORY_HT":1.5,"PARCEL_ID":"1404623000","District":"B3","shape_wkt":"POINT (-71.091701393999983 42.284720271000026)"}},{"type":"Feature","id":13,"geometry":{"type":"Point","coordinates":[-71.059164332999956,42.29805684300004]},"properties":{"OBJECTID":13,"BLDG_ID":"Bos_1600673000_B0","BID":189445,"ADDRESS":"40 Gibson St","POINT_X":-71.059164332999956,"POINT_Y":42.29805684300004,"NAME":"District C-11 Police Station","NEIGHBORHOOD":"Dorchester","CITY":"Boston","ZIP":"02122","FT_SQFT":15338,"STORY_HT":2,"PARCEL_ID":"1600673000","District":"C11","shape_wkt":"POINT (-71.059164332999956 42.29805684300004)"}}]
}